H1 CPF 01  gfz 2021 11 01 01  8051 tandemx   
H2 1003001  6202 36605    2021 11 01 00 59 42 2021 11 06 00 00 42   120 1 1  0 0 0
H9
10 0 59520  82782.000000  0     623131.131   1074663.809  -6782376.093
10 0 59520  82902.000000  0     873764.958    193089.978  -6836915.249
10 0 59520  83022.000000  0    1093778.911   -695944.159  -6772237.602
10 0 59520  83142.000000  0    1279370.281  -1576476.251  -6589455.569
10 0 59520  83262.000000  0    1427604.230  -2432621.168  -6291712.287
10 0 59520  83382.000000  0    1536460.190  -3248850.508  -5884134.915
10 0 59520  83502.000000  0    1604858.646  -4010272.052  -5373757.075
10 0 59520  83622.000000  0    1632667.859  -4702902.537  -4769407.182
10 0 59520  83742.000000  0    1620691.353  -5313926.578  -4081566.525
10 0 59520  83862.000000  0    1570635.138  -5831941.365  -3322198.740
10 0 59520  83982.000000  0    1485054.370  -6247179.839  -2504549.209
10 0 59520  84102.000000  0    1367281.985  -6551706.296  -1642918.197
10 0 59520  84222.000000  0    1221340.100  -6739579.839   -752411.214
10 0 59520  84342.000000  0    1051834.529  -6806981.135    151329.233
10 0 59520  84462.000000  0     863837.327  -6752297.177   1052404.732
10 0 59520  84582.000000  0     662758.412  -6576163.027   1934948.679
10 0 59520  84702.000000  0     454210.822  -6281458.041   2783415.857
10 0 59520  84822.000000  0     243871.872  -5873254.754   3582865.613
10 0 59520  84942.000000  0      37343.680  -5358723.769   4319230.181
10 0 59520  85062.000000  0    -159982.118  -4746999.553   4979565.191
10 0 59520  85182.000000  0    -343052.613  -4049008.085   5552277.846
10 0 59520  85302.000000  0    -507271.448  -3277262.007   6027328.676
10 0 59520  85422.000000  0    -648604.321  -2445626.219   6396402.916
10 0 59520  85542.000000  0    -763669.879  -1569062.724   6653047.981
10 0 59520  85662.000000  0    -849814.350   -663359.403   6792780.488
10 0 59520  85782.000000  0    -905169.152    255155.833   6813161.043
10 0 59520  85902.000000  0    -928689.935   1169909.753   6713834.197
10 0 59520  86022.000000  0    -920175.682   2064382.417   6496534.062
10 0 59520  86142.000000  0    -880268.478   2922404.981   6165055.835
10 0 59520  86262.000000  0    -810434.332   3728452.600   5725193.837
10 0 59520  86382.000000  0    -712924.862   4467928.087   5184645.318
10 0 59521    102.000000  0    -590720.489   5127430.914   4552882.269
10 0 59521    222.000000  0    -447456.505   5695008.747   3840990.264
10 0 59521    342.000000  0    -287332.388   6160381.005   3061477.115
10 0 59521    462.000000  0    -115008.827   6515137.588   2228056.949
10 0 59521    582.000000  0      64508.678   6752902.405   1355403.167
10 0 59521    702.000000  0     245996.181   6869453.889    458884.575
10 0 59521    822.000000  0     424143.050   6862804.907   -445712.285
10 0 59521    942.000000  0     593686.869   6733237.491  -1342470.511
10 0 59521   1062.000000  0     749545.856   6483290.411  -2215631.612
10 0 59521   1182.000000  0     886946.430   6117702.641  -3049878.909
10 0 59521   1302.000000  0    1001543.915   5643314.040  -3830610.410
10 0 59521   1422.000000  0    1089532.974   5068925.823  -4544195.718
10 0 59521   1542.000000  0    1147745.082   4405124.682  -5178211.433
10 0 59521   1662.000000  0    1173730.905   3664076.142  -5721650.624
10 0 59521   1782.000000  0    1165825.535   2859292.978  -6165105.022
10 0 59521   1902.000000  0    1123195.920   2005382.288  -6500916.836
10 0 59521   2022.000000  0    1045869.688   1117779.062  -6723298.694
10 0 59521   2142.000000  0     934745.207    212469.607  -6828424.263
10 0 59521   2262.000000  0     791582.953   -694292.044  -6814486.864
10 0 59521   2382.000000  0     618977.700  -1586269.761  -6681725.843
10 0 59521   2502.000000  0     420312.876  -2447527.408  -6432421.813
10 0 59521   2622.000000  0     199697.378  -3262706.459  -6070864.018
10 0 59521   2742.000000  0     -38115.576  -4017297.704  -5603284.803
10 0 59521   2862.000000  0    -287824.433  -4697898.664  -5037761.887
10 0 59521   2982.000000  0    -543689.939  -5292455.130  -4384090.753
10 0 59521   3102.000000  0    -799658.961  -5790482.315  -3653625.990
10 0 59521   3222.000000  0   -1049498.677  -6183260.129  -2859092.746
10 0 59521   3342.000000  0   -1286938.362  -6463997.826  -2014371.254
10 0 59521   3462.000000  0   -1505815.859  -6627964.830  -1134256.639
10 0 59521   3582.000000  0   -1700224.718  -6672582.201   -234197.432
10 0 59521   3702.000000  0   -1864658.600  -6597471.644    669981.073
10 0 59521   3822.000000  0   -1994149.493  -6404460.563   1562362.741
10 0 59521   3942.000000  0   -2084395.738  -6097542.487   2427229.894
10 0 59521   4062.000000  0   -2131876.140  -5682793.309   3249349.365
10 0 59521   4182.000000  0   -2133947.008  -5168245.559   4014248.103
10 0 59521   4302.000000  0   -2088919.999  -4563725.128   4708472.326
10 0 59521   4422.000000  0   -1996119.537  -3880655.440   5319825.694
10 0 59521   4542.000000  0   -1855918.741  -3131832.285   5837583.580
10 0 59521   4662.000000  0   -1669751.528  -2331174.904   6252676.982
10 0 59521   4782.000000  0   -1440101.679  -1493461.874   6557845.143
10 0 59521   4902.000000  0   -1170470.483   -634054.776   6747757.106
10 0 59521   5022.000000  0    -865323.711    231385.946   6819098.346
10 0 59521   5142.000000  0    -530017.937   1087185.386   6770624.852
10 0 59521   5262.000000  0    -170706.334   1917937.748   6603184.095
10 0 59521   5382.000000  0     205774.184   2708783.491   6319700.979
10 0 59521   5502.000000  0     592032.190   3445675.055   5925129.585
10 0 59521   5622.000000  0     980265.040   4115628.540   5426372.006
10 0 59521   5742.000000  0    1362414.562   4706956.765   4832163.400
10 0 59521   5862.000000  0    1730332.397   5209479.899   4152924.444
10 0 59521   5982.000000  0    2075951.646   5614707.637   3400583.368
10 0 59521   6102.000000  0    2391462.527   5915992.564   2588370.264
10 0 59521   6222.000000  0    2669485.208   6108648.996   1730581.536
10 0 59521   6342.000000  0    2903238.260   6190031.255    842322.899
10 0 59521   6462.000000  0    3086695.336   6159570.368    -60763.813
10 0 59521   6582.000000  0    3214728.487   6018769.804   -962783.739
10 0 59521   6702.000000  0    3283234.276   5771159.072  -1847877.115
10 0 59521   6822.000000  0    3289238.885   5422207.486  -2700505.420
10 0 59521   6942.000000  0    3230980.109   4979199.515  -3505730.544
10 0 59521   7062.000000  0    3107963.054   4451074.644  -4249479.394
10 0 59521   7182.000000  0    2920989.613   3848238.589  -4918788.118
10 0 59521   7302.000000  0    2672161.222   3182350.429  -5502023.310
10 0 59521   7422.000000  0    2364856.486   2466090.372  -5989076.151
10 0 59521   7542.000000  0    2003683.194   1712913.727  -6371527.293
10 0 59521   7662.000000  0    1594406.878    936796.821  -6642780.190
10 0 59521   7782.000000  0    1143858.625    151980.043  -6798163.902
10 0 59521   7902.000000  0     659821.102   -627288.979  -6835006.143
10 0 59521   8022.000000  0     150895.317  -1387008.854  -6752672.981
10 0 59521   8142.000000  0    -373648.097  -2113668.627  -6552577.412
10 0 59521   8262.000000  0    -904033.028  -2794481.879  -6238159.391
10 0 59521   8382.000000  0   -1430155.785  -3417609.198  -5814833.227
10 0 59521   8502.000000  0   -1941772.574  -3972362.680  -5289903.553
10 0 59521   8622.000000  0   -2428695.420  -4449392.022  -4672451.732
10 0 59521   8742.000000  0   -2880993.890  -4840848.749  -3973190.163
10 0 59521   8862.000000  0   -3289197.348  -5140522.968  -3204285.594
10 0 59521   8982.000000  0   -3644493.607  -5343950.686  -2379154.944
10 0 59521   9102.000000  0   -3938920.407  -5448488.921  -1512235.265
10 0 59521   9222.000000  0   -4165544.327  -5453355.719   -618730.943
10 0 59521   9342.000000  0   -4318621.810  -5359633.322    285657.102
10 0 59521   9462.000000  0   -4393738.115  -5170233.711   1185014.341
10 0 59521   9582.000000  0   -4387920.462  -4889826.519   2063502.085
10 0 59521   9702.000000  0   -4299721.397  -4524730.469   2905645.764
10 0 59521   9822.000000  0   -4129271.122  -4082772.458   3696615.144
10 0 59521   9942.000000  0   -3878297.714  -3573117.948   4422491.693
10 0 59521  10062.000000  0   -3550113.839  -3006075.895   5070516.974
10 0 59521  10182.000000  0   -3149571.709  -2392884.739   5629315.737
10 0 59521  10302.000000  0   -2682988.010  -1745485.847   6089092.499
10 0 59521  10422.000000  0   -2158040.272  -1076287.778   6441799.617
10 0 59521  10542.000000  0   -1583635.968   -397924.601   6681273.621
10 0 59521  10662.000000  0    -969756.800    276984.150   6803334.847
10 0 59521  10782.000000  0    -327284.945    936066.483   6805854.911
10 0 59521  10902.000000  0     332189.565   1567424.190   6688792.071
10 0 59521  11022.000000  0     996577.580   2159847.618   6454192.037
10 0 59521  11142.000000  0    1653511.912   2703014.611   6106153.568
10 0 59521  11262.000000  0    2290576.579   3187670.831   5650761.555
10 0 59521  11382.000000  0    2895542.051   3605790.647   5095987.574
10 0 59521  11502.000000  0    3456603.057   3950714.604   4451555.679
10 0 59521  11622.000000  0    3962610.996   4217258.673   3728776.011
10 0 59521  11742.000000  0    4403299.776   4401797.769   2940352.162
10 0 59521  11862.000000  0    4769501.088   4502317.011   2100155.766
10 0 59521  11982.000000  0    5053337.116   4518430.466   1222979.963
10 0 59521  12102.000000  0    5248393.108   4451366.961    324273.563
10 0 59521  12222.000000  0    5349860.641   4303922.082   -580140.210
10 0 59521  12342.000000  0    5354647.528   4080377.840  -1474351.279
10 0 59521  12462.000000  0    5261454.023   3786392.738  -2342650.486
10 0 59521  12582.000000  0    5070812.835   3428864.470  -3169811.835
10 0 59521  12702.000000  0    4785092.159   3015770.582  -3941362.932
10 0 59521  12822.000000  0    4408462.294   2555990.961  -4643839.387
99
